NORAD_CAT_ID,OBJECT_NAME,OBJECT_TYPE,EPOCH,MEAN_MOTION,ECCENTRICITY,INCLINATION,RA_OF_ASC_NODE,ARG_OF_PERICENTER,MEAN_ANOMALY,BSTAR,MEAN_MOTION_DOT,MEAN_MOTION_DDOT,TLE_LINE0,TLE_LINE1,TLE_LINE2,SEMIMAJOR_AXIS,PERIOD,APOGEE,PERIGEE,DECAYED
55922.0,STARLINK-5863,PAYLOAD,2023-06-18 01:41:28,14.98414166,0.0003965,70.0002,294.7391,278.179,81.892,-0.0016956,-0.00020312,0.0,0 STARLINK-5863,1 55922U 23037J   23169.07046599 -.00020312  00000-0 -16956-2 0  9998,2 55922  70.0002 294.7391 0003965 278.1790  81.8920 14.98414166 14698,6949.933,96.102,574.553,569.042,0.0
55922.0,STARLINK-5863,PAYLOAD,2023-06-18 08:06:02,14.98331897,0.0003411,70.0003,294.0657,266.7468,93.33,-3.9915e-05,-5.69e-06,0.0,0 STARLINK-5863,1 55922U 23037J   23169.33752385 -.00000569  00000-0 -39915-4 0  9998,2 55922  70.0003 294.0657 0003411 266.7468  93.3300 14.98331897 14732,6950.187,96.107,574.423,569.681,0.0
55922.0,STARLINK-5863,PAYLOAD,2023-06-18 14:30:34,14.98330965,0.0003563,70.0,293.3923,270.9701,89.1049,-3.8978e-05,-5.58e-06,0.0,0 STARLINK-5863,1 55922U 23037J   23169.60456445 -.00000558  00000-0 -38978-4 0  9992,2 55922  70.0000 293.3923 0003563 270.9701  89.1049 14.98330965 14437,6950.19,96.107,574.531,569.579,0.0
55922.0,STARLINK-5863,PAYLOAD,2023-06-19 14:32:34,14.9833031,0.0003751,69.9993,290.866,266.9712,93.1018,0.0002142,2.464e-05,0.0,0 STARLINK-5863,1 55922U 23037J   23170.60595778  .00002464  00000-0  21420-3 0  9996,2 55922  69.9993 290.8660 0003751 266.9712  93.1018 14.98330310 14582,6950.192,96.107,574.664,569.45,0.0
55922.0,STARLINK-5863,PAYLOAD,2023-06-20 08:10:03,14.98328052,0.0003754,69.9997,289.0149,266.1774,93.8955,5.1259e-05,5.19e-06,0.0,0 STARLINK-5863,1 55922U 23037J   23171.34032287  .00000519  00000-0  51259-4 0  9992,2 55922  69.9997 289.0149 0003754 266.1774  93.8955 14.98328052 15039,6950.199,96.107,574.673,569.455,0.0
55922.0,STARLINK-5863,PAYLOAD,2023-06-20 17:46:52,14.98331451,0.0003581,70.0001,288.0054,265.5463,94.5287,1.2252e-05,5.3e-07,0.0,0 STARLINK-5863,1 55922U 23037J   23171.74088174  .00000053  00000-0  12252-4 0  9995,2 55922  70.0001 288.0054 0003581 265.5463  94.5287 14.98331451 14759,6950.188,96.107,574.542,569.565,0.0
55922.0,STARLINK-5863,PAYLOAD,2023-06-21 11:24:20,14.98333411,0.000359,70.0002,286.1533,266.9589,93.1159,-6.0268e-05,-8.12e-06,0.0,0 STARLINK-5863,1 55922U 23037J   23172.47524070 -.00000812  00000-0 -60268-4 0  9991,2 55922  70.0002 286.1533 0003590 266.9589  93.1159 14.98333411 15207,6950.182,96.107,574.542,569.552,0.0
55922.0,STARLINK-5863,PAYLOAD,2023-06-21 13:00:28,14.98333801,0.0003573,70.0002,285.985,266.8601,93.2149,-4.7163e-05,-6.56e-06,0.0,0 STARLINK-5863,1 55922U 23037J   23172.54199993 -.00000656  00000-0 -47163-4 0  9996,2 55922  70.0002 285.9850 0003573 266.8601  93.2149 14.98333801 14876,6950.181,96.107,574.529,569.563,0.0
55922.0,STARLINK-5863,PAYLOAD,2023-06-21 17:48:52,14.98337094,0.0003598,70.0001,285.4801,267.9132,92.1615,-2.2678e-05,-3.64e-06,0.0,0 STARLINK-5863,1 55922U 23037J   23172.74227638 -.00000364  00000-0 -22678-4 0  9996,2 55922  70.0001 285.4801 0003598 267.9132  92.1615 14.98337094 14902,6950.171,96.107,574.537,569.535,0.0
55922.0,STARLINK-5863,PAYLOAD,2023-06-22 16:14:45,14.98331757,0.0003747,69.9995,283.1232,270.3321,89.7409,1.4347e-05,7.8e-07,0.0,0 STARLINK-5863,1 55922U 23037J   23173.67691716  .00000078  00000-0  14347-4 0  9995,2 55922  69.9995 283.1232 0003747 270.3321  89.7409 14.98331757 15384,6950.187,96.107,574.657,569.448,0.0
55922.0,STARLINK-5863,PAYLOAD,2023-06-23 16:16:46,14.98336339,0.0003816,69.9992,280.5984,270.6267,89.4455,3.9297e-05,3.76e-06,0.0,0 STARLINK-5863,1 55922U 23037J   23174.67831225  .00000376  00000-0  39297-4 0  9999,2 55922  69.9992 280.5984 0003816 270.6267  89.4455 14.98336339 15531,6950.173,96.107,574.69,569.386,0.0
55922.0,STARLINK-5863,PAYLOAD,2023-06-24 08:18:07,14.98322426,0.0003889,69.9989,278.9147,271.8374,88.2339,-2.8444e-05,-4.32e-06,0.0,0 STARLINK-5863,1 55922U 23037J   23175.34592270 -.00000432  00000-0 -28444-4 0  9995,2 55922  69.9989 278.9147 0003889 271.8374  88.2339 14.98322426 15632,6950.216,96.107,574.784,569.378,0.0
55922.0,STARLINK-5863,PAYLOAD,2023-06-25 08:20:08,14.98325777,0.0003808,69.9993,276.3904,270.0898,89.9824,-3.3367e-05,-4.91e-06,0.0,0 STARLINK-5863,1 55922U 23037J   23176.34732194 -.00000491  00000-0 -33367-4 0  9992,2 55922  69.9993 276.3904 0003808 270.0898  89.9824 14.98325777 15788,6950.206,96.107,574.718,569.424,0.0
55922.0,STARLINK-5863,PAYLOAD,2023-06-25 16:20:48,14.98334583,0.0003843,69.9991,275.548,269.5285,90.5433,3.143e-05,2.82e-06,0.0,0 STARLINK-5863,1 55922U 23037J   23176.68111412  .00000282  00000-0  31430-4 0  9998,2 55922  69.9991 275.5480 0003843 269.5285  90.5433 14.98334583 15833,6950.179,96.107,574.715,569.373,0.0
55922.0,STARLINK-5863,PAYLOAD,2023-06-26 00:21:29,14.98319214,0.0003841,69.999,274.7054,263.2026,96.8696,0.00016675,1.897e-05,0.0,0 STARLINK-5863,1 55922U 23037J   23177.01491993  .00001897  00000-0  16675-3 0  9997,2 55922  69.9990 274.7054 0003841 263.2026  96.8696 14.98319214 15881,6950.226,96.108,574.761,569.422,0.0
55922.0,STARLINK-5863,PAYLOAD,2023-06-27 10:00:18,14.98329641,0.0003786,69.9994,271.172,269.6732,90.3993,4.8901e-05,4.9e-06,0.0,0 STARLINK-5863,1 55922U 23037J   23178.41687858  .00000490  00000-0  48901-4 0  9995,2 55922  69.9994 271.1720 0003786 269.6732  90.3993 14.98329641 16096,6950.194,96.107,574.69,569.428,0.0
55922.0,STARLINK-5863,PAYLOAD,2023-06-28 10:02:19,14.98328303,0.0003711,69.9996,268.6471,271.0466,89.0268,2.2413e-05,1.74e-06,0.0,0 STARLINK-5863,1 55922U 23037J   23179.41827858  .00000174  00000-0  22413-4 0  9991,2 55922  69.9996 268.6471 0003711 271.0466  89.0268 14.98328303 16242,6950.198,96.107,574.642,569.484,0.0
55922.0,STARLINK-5863,PAYLOAD,2023-06-29 10:04:20,14.98332414,0.0003709,69.9996,266.1225,269.7322,90.3412,-3.197e-05,-4.75e-06,0.0,0 STARLINK-5863,1 55922U 23037J   23180.41967648 -.00000475  00000-0 -31970-4 0  9999,2 55922  69.9996 266.1225 0003709 269.7322  90.3412 14.98332414 16394,6950.185,96.107,574.628,569.473,0.0
55922.0,STARLINK-5863,PAYLOAD,2023-06-30 14:54:45,14.98330547,0.0003807,69.9992,263.0924,269.9337,90.1386,-3.9253e-06,-1.4e-06,0.0,0 STARLINK-5863,1 55922U 23037J   23181.62135524 -.00000140  00000-0 -39253-5 0  9995,2 55922  69.9992 263.0924 0003807 269.9337  90.1386 14.98330547 16572,6950.191,96.107,574.702,569.41,0.0
55922.0,STARLINK-5863,PAYLOAD,2023-07-01 14:56:46,14.98326225,0.00038,69.9992,260.5675,269.1988,90.8736,-3.5749e-05,-5.2e-06,0.0,0 STARLINK-5863,1 55922U 23037J   23182.62276006 -.00000520  00000-0 -35749-4 0  9994,2 55922  69.9992 260.5675 0003800 269.1988  90.8736 14.98326225 16725,6950.205,96.107,574.711,569.428,0.0
55922.0,STARLINK-5863,PAYLOAD,2023-07-02 10:10:22,14.98332002,0.0003869,69.9989,258.5471,268.7756,91.296,3.0213e-05,2.67e-06,0.0,0 STARLINK-5863,1 55922U 23037J   23183.42387440  .00000267  00000-0  30213-4 0  9995,2 55922  69.9989 258.5471 0003869 268.7756  91.2960 14.98332002 16842,6950.187,96.107,574.741,569.363,0.0
55922.0,STARLINK-5863,PAYLOAD,2023-07-03 11:48:31,14.98334037,0.0003962,69.9988,255.854,268.0445,92.026,8.7332e-05,9.49e-06,0.0,0 STARLINK-5863,1 55922U 23037J   23184.49202937  .00000949  00000-0  87332-4 0  9991,2 55922  69.9988 255.8540 0003962 268.0445  92.0260 14.98334037 17001,6950.18,96.107,574.799,569.292,0.0
55922.0,STARLINK-5863,PAYLOAD,2023-07-04 11:50:32,14.98330456,0.0003852,69.9991,253.3292,267.5403,92.5315,-4.0826e-05,-5.8e-06,0.0,0 STARLINK-5863,1 55922U 23037J   23185.49343343 -.00000580  00000-0 -40826-4 0  9999,2 55922  69.9991 253.3292 0003852 267.5403  92.5315 14.98330456 17151,6950.191,96.107,574.734,569.379,0.0
55922.0,STARLINK-5863,PAYLOAD,2023-07-05 13:28:41,14.98330206,0.0003865,69.9991,250.6358,268.8777,91.1939,-6.584e-05,-8.79e-06,0.0,0 STARLINK-5863,1 55922U 23037J   23186.56159320 -.00000879  00000-0 -65840-4 0  9992,2 55922  69.9991 250.6358 0003865 268.8777  91.1939 14.98330206 17314,6950.192,96.107,574.744,569.371,0.0
55922.0,STARLINK-5863,PAYLOAD,2023-07-06 13:30:42,14.98328306,0.0003962,69.9989,248.1111,269.4585,90.612,8.3635e-06,7e-08,0.0,0 STARLINK-5863,1 55922U 23037J   23187.56299278  .00000007  00000-0  83635-5 0  9994,2 55922  69.9989 248.1111 0003962 269.4585  90.6120 14.98328306 17462,6950.198,96.107,574.817,569.309,0.0
55922.0,STARLINK-5863,PAYLOAD,2023-07-07 13:32:43,14.98325263,0.0004045,69.999,245.5861,269.3968,90.6728,0.00020614,2.367e-05,0.0,0 STARLINK-5863,1 55922U 23037J   23188.56438951  .00002367  00000-0  20614-3 0  9995,2 55922  69.9990 245.5861 0004045 269.3968  90.6728 14.98325263 17614,6950.208,96.107,574.884,569.261,0.0
55922.0,STARLINK-5863,PAYLOAD,2023-07-08 13:34:44,14.98328451,0.0003605,69.9998,243.0612,263.5759,96.499,3.3405e-05,3.06e-06,0.0,0 STARLINK-5863,1 55922U 23037J   23189.56579077  .00000306  00000-0  33405-4 0  9995,2 55922  69.9998 243.0612 0003605 263.5759  96.4990 14.98328451 17767,6950.198,96.107,574.568,569.557,0.0
55922.0,STARLINK-5863,PAYLOAD,2023-07-09 13:36:45,14.98324604,0.0003996,69.9997,240.5364,269.9998,90.0704,-3.5231e-05,-5.13e-06,0.0,0 STARLINK-5863,1 55922U 23037J   23190.56719560 -.00000513  00000-0 -35231-4 0  9991,2 55922  69.9997 240.5364 0003996 269.9998  90.0704 14.98324604 17916,6950.21,96.107,574.852,569.297,0.0
55922.0,STARLINK-5863,PAYLOAD,2023-07-10 02:25:49,14.98330273,0.000403,69.9995,239.1898,270.4474,89.6223,1.8839e-05,1.32e-06,0.0,0 STARLINK-5863,1 55922U 23037J   23191.10127038  .00000132  00000-0  18839-4 0  9995,2 55922  69.9995 239.1898 0004030 270.4474  89.6223 14.98330273 17993,6950.192,96.107,574.858,569.256,0.0
55922.0,STARLINK-5863,PAYLOAD,2023-07-10 20:03:19,14.98313528,0.0003941,69.9994,237.3385,261.9748,98.0963,9.9887e-05,1.098e-05,0.0,0 STARLINK-5863,1 55922U 23037J   23191.83563912  .00001098  00000-0  99887-4 0  9994,2 55922  69.9994 237.3385 0003941 261.9748  98.0963 14.98313528 18105,6950.244,96.108,574.848,569.37,0.0
